ASTROCAST 0.1           
1 43798U 18099AS  26195.75435521  .00024304  00000+0  41300-3 0  9996
2 43798  97.4372 275.1480 0005626 131.1551 229.0187 15.51432936418706
ASTROCAST-0402          
1 55109U 23001DE  26195.79521227  .00006221  00000+0  22354-3 0  9993
2 55109  97.5588 289.4148 0006441 135.7231 224.4525 15.29002772148751
ASTROCAST-0401          
1 55110U 23001DF  26195.81061900  .00009789  00000+0  35472-3 0  9992
2 55110  97.5574 289.2362 0009531 109.3684 250.8586 15.28540679195424
ASTROCAST-0403          
1 55111U 23001DG  26195.24051674  .00013454  00000+0  43315-3 0  9996
2 55111  97.5629 289.9716 0004625 215.2571 144.8365 15.32330793148702
ASTROCAST-0404          
1 55112U 23001DH  26195.82880137  .00004465  00000+0  16218-3 0  9999
2 55112  97.5675 290.3817 0005082 244.7189 115.3524 15.28820279148755
