{"fetched_at":"2026-07-15T06:35:52.051Z","source":"https://celestrak.org/NORAD/elements/gp.php?NAME=ASTROCAST&FORMAT=JSON","constellation":"astrocast","records":[{"OBJECT_NAME":"ASTROCAST 0.1","OBJECT_ID":"2018-099AS","EPOCH":"2026-07-14T18:06:16.290144","CLASSIFICATION_TYPE":"U","MEAN_MOTION":15.51432936,"ECCENTRICITY":0.00056262,"INCLINATION":97.4372,"RA_OF_ASC_NODE":275.148,"ARG_OF_PERICENTER":131.1551,"MEAN_ANOMALY":229.0187,"EPHEMERIS_TYPE":0,"NORAD_CAT_ID":43798,"ELEMENT_SET_NO":999,"REV_AT_EPOCH":41870,"BSTAR":0.00041299565,"MEAN_MOTION_DOT":0.00024304,"MEAN_MOTION_DDOT":0},{"OBJECT_NAME":"ASTROCAST-0402","OBJECT_ID":"2023-001DE","EPOCH":"2026-07-14T19:05:06.340128","CLASSIFICATION_TYPE":"U","MEAN_MOTION":15.29002772,"ECCENTRICITY":0.00064417,"INCLINATION":97.5588,"RA_OF_ASC_NODE":289.4148,"ARG_OF_PERICENTER":135.7231,"MEAN_ANOMALY":224.4525,"EPHEMERIS_TYPE":0,"NORAD_CAT_ID":55109,"ELEMENT_SET_NO":999,"REV_AT_EPOCH":14875,"BSTAR":0.0002235419,"MEAN_MOTION_DOT":0.00006221,"MEAN_MOTION_DDOT":0},{"OBJECT_NAME":"ASTROCAST-0401","OBJECT_ID":"2023-001DF","EPOCH":"2026-07-14T19:27:17.481600","CLASSIFICATION_TYPE":"U","MEAN_MOTION":15.28540679,"ECCENTRICITY":0.00095312,"INCLINATION":97.5574,"RA_OF_ASC_NODE":289.2362,"ARG_OF_PERICENTER":109.3684,"MEAN_ANOMALY":250.8586,"EPHEMERIS_TYPE":0,"NORAD_CAT_ID":55110,"ELEMENT_SET_NO":999,"REV_AT_EPOCH":19542,"BSTAR":0.0003547215,"MEAN_MOTION_DOT":0.00009789,"MEAN_MOTION_DDOT":0},{"OBJECT_NAME":"ASTROCAST-0403","OBJECT_ID":"2023-001DG","EPOCH":"2026-07-14T05:46:20.646336","CLASSIFICATION_TYPE":"U","MEAN_MOTION":15.32330793,"ECCENTRICITY":0.00046251,"INCLINATION":97.5629,"RA_OF_ASC_NODE":289.9716,"ARG_OF_PERICENTER":215.2571,"MEAN_ANOMALY":144.8365,"EPHEMERIS_TYPE":0,"NORAD_CAT_ID":55111,"ELEMENT_SET_NO":999,"REV_AT_EPOCH":14870,"BSTAR":0.00043315062,"MEAN_MOTION_DOT":0.00013454,"MEAN_MOTION_DDOT":0},{"OBJECT_NAME":"ASTROCAST-0404","OBJECT_ID":"2023-001DH","EPOCH":"2026-07-14T19:53:28.438368","CLASSIFICATION_TYPE":"U","MEAN_MOTION":15.28820279,"ECCENTRICITY":0.00050823,"INCLINATION":97.5675,"RA_OF_ASC_NODE":290.3817,"ARG_OF_PERICENTER":244.7189,"MEAN_ANOMALY":115.3524,"EPHEMERIS_TYPE":0,"NORAD_CAT_ID":55112,"ELEMENT_SET_NO":999,"REV_AT_EPOCH":14875,"BSTAR":0.00016218103,"MEAN_MOTION_DOT":0.00004465,"MEAN_MOTION_DDOT":0}]}
